0 FENGYUN 1C DEB
1 33619U 99025DDC 13283.26924774  .00001465  00000-0  98207-3 0  4085
2 33619 099.1810 301.6374 0063136 234.9888 184.5490 14.01534198266413
0 FENGYUN 1C DEB
1 33619U 99025DDC 13285.85230328  .00001415  00000-0  94912-3 0  4092
2 33619 099.1813 304.2364 0063178 227.8866 257.4248 14.01541270266776
0 FENGYUN 1C DEB
1 33619U 99025DDC 13289.26593870  .00001530  00000-0  10234-2 0  4109
2 33619 099.1808 307.6716 0063205 218.4599 201.1739 14.01555169267255
0 FENGYUN 1C DEB
1 33619U 99025DDC 13291.84920287  .00001596  00000-0  10663-2 0  4111
2 33619 099.1800 310.2695 0063280 211.2765 275.3859 14.01562629267617
0 FENGYUN 1C DEB
1 33619U 99025DDC 13295.84658829  .00001713  00000-0  11416-2 0  4124
2 33619 099.1795 314.2911 0063341 200.2198 284.8316 14.01576579268175
